CYGNUS NG-23            
1 65616U 25208A   25361.17953131  .00013867  00000+0  25170-3 0  9990
2 65616  51.6319  70.9638 0003228 308.9173  51.1527 15.49864323   220
DRAGONFLY               
1 65729U 98067XH  25361.40061934  .00232349  00000+0  13487-2 0  9990
2 65729  51.6252  60.4091 0008326   3.6197 356.4863 15.77254600 15476
1998-067XK              
1 65731U 98067XK  25361.46451197  .00112248  00000+0  95755-3 0  9997
2 65731  51.6288  62.3700 0005069 336.6665  23.4101 15.68658441 15451
RSP-03                  
1 65732U 98067XL  25361.43792693  .00156013  00000+0  11231-2 0  9998
2 65732  51.6262  61.4259 0006137 344.1369  15.9436 15.72555826 15472
GHS-01                  
1 65733U 98067XM  25361.50781520  .00325699  00000+0  15063-2 0  9999
2 65733  51.6274  58.8829 0009520   8.1386 351.9769 15.81984355 15514
YOTSUBA-KULOVER         
1 65941U 98067XN  25361.25034973  .00072986  00000+0  83630-3 0  9999
2 65941  51.6290  66.9415 0002754   9.1990 350.9054 15.61434985 12125
BOTAN                   
1 65942U 98067XP  25361.21907921  .00122237  00000+0  11596-2 0  9994
2 65942  51.6275  65.9806 0003686 351.9823   8.1114 15.66006349 12134
E-KAGAKU-1              
1 65943U 98067XQ  25360.48238675  .00069021  00000+0  79497-3 0  9992
2 65943  51.6304  70.8185 0001473 333.5123  26.5795 15.61326456 12008
HRC MONOBLOCK CAMERA    
1 66052U 98067XR  25361.30722797  .00035345  00000+0  51894-3 0  9992
2 66052  51.6304  68.8177 0001856 258.0003 102.0780 15.55156889 11109
HTV-X1                  
1 66174U 25241A   25361.17953131  .00013867  00000+0  25170-3 0  9997
2 66174  51.6319  70.9638 0003228 308.9173  51.1527 15.49864323   512
SZ-21 MODULE            
1 66515U 25246C   25361.49223441  .00029574  00000+0  31547-3 0  9997
2 66515  41.4763 286.0025 0004075 340.5581  19.5103 15.63283022  6754
SHENZHOU-22             
1 66645U 25272A   25361.25191925  .00019920  00000+0  24489-3 0  9996
2 66645  41.4675 288.5662 0008745 157.7703 202.3516 15.59750285265983
